[{"OBJECT_NAME":"STARLINK-2029","OBJECT_ID":"2021-036AW","EPOCH":"2026-03-10T00:00:02.999808","MEAN_MOTION":15.21612256,"ECCENTRICITY":0.00015554,"INCLINATION":53.1203,"RA_OF_ASC_NODE":99.8001,"ARG_OF_PERICENTER":84.4684,"MEAN_ANOMALY":239.4047,"EPHEMERIS_TYPE":0,"CLASSIFICATION_TYPE":"U","NORAD_CAT_ID":48320,"ELEMENT_SET_NO":999,"REV_AT_EPOCH":574,"BSTAR":0.039856739,"MEAN_MOTION_DOT":0.00990666,"MEAN_MOTION_DDOT":0},{"OBJECT_NAME":"PELICAN-5","OBJECT_ID":"2025-276B","EPOCH":"2026-03-09T22:00:01.999584","MEAN_MOTION":15.24716853,"ECCENTRICITY":6.9e-5,"INCLINATION":97.424,"RA_OF_ASC_NODE":144.3271,"ARG_OF_PERICENTER":285.782,"MEAN_ANOMALY":285.5775,"EPHEMERIS_TYPE":0,"CLASSIFICATION_TYPE":"U","NORAD_CAT_ID":66667,"ELEMENT_SET_NO":999,"REV_AT_EPOCH":130,"BSTAR":-7.274852e-5,"MEAN_MOTION_DOT":-1.868e-5,"MEAN_MOTION_DDOT":0}]
